{
  "norad_id": 61849,
  "name": "STARLINK-32346",
  "history": [
    {
      "epoch": "2026-03-28T18:31:02.107488",
      "apogee_km": 483.7624368819488,
      "perigee_km": 482.4400018275501,
      "latitude_deg": -40.97500113502394,
      "longitude_deg": 78.96900831977837,
      "semi_major_axis_km": 6861.238219354749,
      "eccentricity": 9.637e-05,
      "inclination_deg": 43.0016,
      "raan_deg": 119.1758,
      "arg_perigee_deg": 277.3421,
      "mean_anomaly_deg": 82.7322,
      "mean_motion_rev_day": 15.27562593
    }
  ]
}